EYESAT-1 (AO-27)        
1 22825U 93061C   17052.46208521  .00000006  00000-0  20094-4 0  9996
2 22825  98.7970  16.7168 0007641 315.2198  44.8366 14.29986335220866
CUTE-1 (CO-55)          
1 27844U 03031E   17052.54115244  .00000078  00000-0  54953-4 0  9998
2 27844  98.6920  63.2200 0009071 327.4370  32.6247 14.22015964707885
CUBESAT XI-IV (CO-57)   
1 27848U 03031J   17052.01703047  .00000056  00000-0  45627-4 0  9992
2 27848  98.7015  62.9118 0009168 338.7492  21.3304 14.21633308707691
CUBESAT XI 5            
1 28895U 05043F   17052.68595317  .00000231  00000-0  53257-4 0  9995
2 28895  97.8499 220.3922 0017679 145.7661 214.4685 14.63344446603592
CUTE-1.7+APD II (CO-65) 
1 32785U 08021C   17052.83693700  .00000343  00000-0  43229-4 0  9991
2 32785  97.5780  82.3135 0013065 184.1438 175.9673 14.87799368477748
COMPASS-1               
1 32787U 08021E   17052.16617729  .00000666  00000-0  70208-4 0  9991
2 32787  97.5743  89.8112 0013267 159.4728 200.7028 14.92433140478197
AAUSAT-II               
1 32788U 08021F   17052.75066451  .00000473  00000-0  49876-4 0  9990
2 32788  97.5736  93.0093 0012835 150.8095 209.3845 14.93690719478445
DELFI-C3 (DO-64)        
1 32789U 08021G   17052.24471266  .00002800  00000-0  20443-3 0  9993
2 32789  97.5747 112.8647 0014011 133.6142 226.6249 15.04411181479430
CANX-2                  
1 32790U 08021H   17052.12322696  .00000273  00000-0  35775-4 0  9991
2 32790  97.5753  80.0885 0013643 188.3217 171.7776 14.87536193477589
SEEDS II (CO-66)        
1 32791U 08021J   17051.87580862  .00000419  00000-0  48778-4 0  9993
2 32791  97.5767  85.3928 0013733 173.6660 186.4734 14.90094345477826
SWISSCUBE               
1 35932U 09051B   17052.33919947  .00000194  00000-0  54928-4 0  9993
2 35932  98.4765 188.8970 0006746 242.1774 117.8740 14.55958862393460
BEESAT                  
1 35933U 09051C   17052.33526332  .00000183  00000-0  52323-4 0  9991
2 35933  98.4799 190.1317 0004778 256.7452 103.3212 14.56084725393560
ITUPSAT 1               
1 35935U 09051E   17052.32817233  .00000164  00000-0  48755-4 0  9998
2 35935  98.4910 190.3766 0007137 249.8500 110.1929 14.55283265393386
TISAT 1                 
1 36799U 10035E   17052.25895994  .00000661  00000-0  74217-4 0  9997
2 36799  98.0470 172.7617 0012112 354.1396   5.9677 14.90232178358516
M-CUBED & EXP-1 PRIME   
1 37855U 11061F   17052.21619168  .00001933  00000-0  10946-3 0  9995
2 37855 101.7208 224.7005 0182072  63.8620 298.1195 15.02586031289379
HORYU 2                 
1 38340U 12025D   17052.85527532  .00000345  00000-0  59145-4 0  9990
2 38340  98.3741  52.7336 0010586 302.2685  57.7497 14.75255298256284
STRAND-1                
1 39090U 13009E   17052.55187496  .00000048  00000-0  32455-4 0  9999
2 39090  98.5640 258.9996 0008149 285.3293  74.6991 14.34948985208895
BRITE-AUSTRIA           
1 39091U 13009F   17052.64087788  .00000031  00000-0  26471-4 0  9996
2 39091  98.5600 258.5148 0009480 293.4024  66.6164 14.35014762208923
UNIBRITE                
1 39092U 13009G   17052.14200254  .00000011  00000-0  19404-4 0  9993
2 39092  98.5606 257.7238 0008321 287.8122  72.2155 14.34887323208833
AIST-2                  
1 39133U 13015D   17052.82008910  .00000250  00000-0  30455-4 0  9990
2 39133  64.8733 290.1224 0031602 301.8327  57.9717 15.04183512210940
SOMP                    
1 39134U 13015E   17052.89314871  .00002110  00000-0  11434-3 0  9996
2 39134  64.8685 238.4509 0028564 300.4472  59.3833 15.17289032211985
BEESAT-2                
1 39136U 13015G   17052.51688862  .00001574  00000-0  94441-4 0  9994
2 39136  64.8686 248.7906 0026895 299.6606  60.1841 15.14676562211755
NEE-01 PEGASUS          
1 39151U 13018B   17052.19630538  .00000224  00000-0  36830-4 0  9994
2 39151  97.9854 144.4561 0018391  67.8879 292.4283 14.79647217206393
CUBEBUG-1 (CAPITAN BETO)
1 39153U 13018D   17052.69541486  .00000308  00000-0  47596-4 0  9998
2 39153  97.9871 145.6193 0018276  64.9819 295.3288 14.80099880206512
ESTCUBE 1               
1 39161U 13021C   17052.83356567  .00000192  00000-0  38681-4 0  9997
2 39161  98.0325 140.3253 0010461 145.0461 215.1432 14.71832457203780
POPACS 1                
1 39268U 13055D   17051.66695278  .00007453  00000-0  21734-3 0  9994
2 39268  81.0057 129.6471 0657669 200.9035 156.4088 14.29387271175536
POPACS 2                
1 39269U 13055E   17051.68380222  .00004692  00000-0  14108-3 0  9996
2 39269  81.0190 142.2997 0704300 234.1945 119.1815 14.18919399174772
POPACS 3                
1 39270U 13055F   17052.25815258  .00003068  00000-0  99001-4 0  9996
2 39270  81.0212 148.5688 0727287 253.8678  98.1311 14.12530179174401
FIREFLY                 
1 39404U 13064AA  17052.11066137  .00030720  00000-0  27874-3 0  9997
2 39404  40.5026 311.9521 0006889 284.8868  75.1194 15.67254968182995
ZACUBE-1 (TSHEPISOSAT)  
1 39417U 13066B   17052.53326049  .00000331  00000-0  48645-4 0  9995
2 39417  97.6461 100.2909 0058004 288.5851  70.9067 14.80622126175660
WNISAT-1                
1 39423U 13066H   17052.90970928  .00000129  00000-0  34691-4 0  9995
2 39423  97.6758  50.8784 0177308  78.6925 283.4146 14.52800481172494
TRITON-1                
1 39427U 13066M   17052.74789592  .00000343  00000-0  63076-4 0  9993
2 39427  97.6457  75.7994 0114387 359.2884   0.8141 14.67381361174117
GOMX 1                  
1 39430U 13066Q   17052.73663587  .00000387  00000-0  79068-4 0  9997
2 39430  97.6639  60.5896 0153137  48.0401 313.3732 14.58789434173109
BRITE-PL                
1 39431U 13066R   17052.55601040  .00000137  00000-0  38747-4 0  9996
2 39431  97.6947  40.6489 0204024 113.5460 248.7312 14.46806170171730
HUMSAT-D                
1 39433U 13066T   17052.18037623  .00000664  00000-0  71787-4 0  9993
2 39433  97.6672 118.6593 0030084 241.1349 118.6850 14.91257945176722
EAGLE 2                 
1 39436U 13066W   17052.24257867  .00023397  00000-0  76772-3 0  9993
2 39436  97.7055 153.0978 0013239 133.3890 226.8455 15.31524110178874
CUBEBUG-2 (LO-74)       
1 39440U 13066AA  17052.13836892  .00000272  00000-0  45521-4 0  9993
2 39440  97.6432  90.0183 0079791 317.5742  41.9317 14.75367912174985
NEE-02 KRYSAOR          
1 39441U 13066AB  17052.08107029  .00000188  00000-0  34175-4 0  9990
2 39441  97.6412  88.8444 0081221 320.8696  38.6657 14.74557152174879
FUNCUBE-1 (AO-73)       
1 39444U 13066AE  17052.16404079  .00000349  00000-0  50218-4 0  9992
2 39444  97.6476 100.8458 0057167 286.9285  72.5666 14.81334854174439
UWE-3                   
1 39446U 13066AG  17052.84940252  .00000319  00000-0  49640-4 0  9991
2 39446  97.6435  95.3909 0069236 301.6602  57.7869 14.77898459174164
BRITE-TORONTO           
1 40020U 14033L   17052.71630560  .00000146  00000-0  33830-4 0  9992
2 40020  97.8540 288.5567 0087118 335.1417  24.5603 14.66355130143160
DUCHIFAT-1              
1 40021U 14033M   17052.84409188  .00000740  00000-0  83111-4 0  9994
2 40021  97.9235 325.8229 0012443 326.9272  33.1166 14.89728781145421
FLOCK 1C-10             
1 40023U 14033P   17052.71583810  .00000825  00000-0  94830-4 0  9991
2 40023  97.9280 324.9251 0012960 333.3699  26.6873 14.88487183145325
NANOSATC-BR1            
1 40024U 14033Q   17051.78680981  .00000516  00000-0  60759-4 0  9995
2 40024  97.9201 323.8281 0011789 331.6901  28.3674 14.89075337145227
QB50P1                  
1 40025U 14033R   17052.31017262  .00000451  00000-0  54785-4 0  9992
2 40025  97.9188 323.5586 0011974 332.2560  27.8017 14.88306499145254
FLOCK 1C-7              
1 40026U 14033S   17052.72222363  .00001116  00000-0  12395-3 0  9997
2 40026  97.9274 325.4995 0011110 331.0092  29.0523 14.89217146145364
FLOCK 1C-1              
1 40027U 14033T   17052.68884923  .00000366  00000-0  45420-4 0  9991
2 40027  97.9287 325.0900 0012527 330.4153  29.6344 14.88568964145335
POPSAT-HIP-1            
1 40028U 14033U   17052.73517965  .00000609  00000-0  72121-4 0  9995
2 40028  97.9213 324.2225 0013287 329.0158  31.0277 14.88182083145302
FLOCK 1C-2              
1 40029U 14033V   17052.85344176  .00000932  00000-0  10609-3 0  9992
2 40029  97.9278 325.1230 0013878 325.7456  34.2905 14.88573130145344
FLOCK 1C-4              
1 40031U 14033X   17052.72512113  .00000622  00000-0  72997-4 0  9994
2 40031  97.9294 325.0010 0013878 324.2559  35.7752 14.88475501145314
QB50P2                  
1 40032U 14033Y   17051.78528581  .00000413  00000-0  51265-4 0  9999
2 40032  97.9165 322.2707 0011276 328.7723  31.2822 14.87865997145136
FLOCK 1C-11             
1 40033U 14033Z   17052.70027988  .00000591  00000-0  67300-4 0  9992
2 40033  97.9296 326.0689 0011708 319.2852  40.7596 14.89957190145391
ANTELSAT                
1 40034U 14033AA  17052.65067761  .00000333  00000-0  57736-4 0  9996
2 40034  97.8755 300.0557 0058091 305.3509  54.2278 14.73611636143905
FLOCK 1C-9              
1 40035U 14033AB  17052.71178211  .00000787  00000-0  90450-4 0  9990
2 40035  97.9319 325.2928 0011608 320.4547  39.5873 14.88620457145329
FLOCK 1C-6              
1 40036U 14033AC  17052.33760739  .00001012  00000-0  11424-3 0  9996
2 40036  97.9307 325.0903 0011585 321.0423  38.9942 14.88726310145282
PERSEUS-M2              
1 40037U 14033AD  17052.52655512  .00000193  00000-0  28242-4 0  9996
2 40037  97.9195 321.8382 0013739 329.5610  30.4806 14.86174797145131
FLOCK 1C-5              
1 40038U 14033AE  17052.68080502  .00000901  00000-0  10241-3 0  9991
2 40038  97.9298 325.2690 0013814 319.6563  40.3626 14.88731777145327
PERSEUS-M1              
1 40039U 14033AF  17052.49711937  .00000148  00000-0  23303-4 0  9991
2 40039  97.9204 321.4284 0013507 325.2976  34.7357 14.85799670145097
FLOCK 1C-8              
1 40040U 14033AG  17052.68628381  .00000895  00000-0  97149-4 0  9992
2 40040  97.9319 326.9722 0012148 307.9989  52.0143 14.90638222145428
FLOCK 1C-3              
1 40041U 14033AH  17052.68648945  .00000801  00000-0  92348-4 0  9994
2 40041  97.9301 325.0974 0012485 316.4800  43.5449 14.88420859145303
